CCSDS_OMM_VERS = 2.0
CREATION_DATE  = 
ORIGINATOR     = 

OBJECT_NAME    = STARLINK-36736
OBJECT_ID      = 2026-036H
CENTER_NAME    = EARTH
REF_FRAME      = TEME
TIME_SYSTEM    = UTC
MEAN_ELEMENT_THEORY = SGP/SGP4

EPOCH          = 2026-03-17T20:00:01.999008
MEAN_MOTION    = 15.58991520
ECCENTRICITY   = .000174
INCLINATION    = 43.0001
RA_OF_ASC_NODE = 200.3957
ARG_OF_PERICENTER = 285.0860
MEAN_ANOMALY   = 107.9447

EPHEMERIS_TYPE = 0
CLASSIFICATION_TYPE = U
NORAD_CAT_ID   = 67911
ELEMENT_SET_NO = 999
REV_AT_EPOCH   = 495
BSTAR          = -.26098E-1
MEAN_MOTION_DOT = -.1850007E-1
MEAN_MOTION_DDOT = 0

CCSDS_OMM_VERS = 2.0
CREATION_DATE  = 
ORIGINATOR     = 

OBJECT_NAME    = STARLINK-36676
OBJECT_ID      = 2026-036J
CENTER_NAME    = EARTH
REF_FRAME      = TEME
TIME_SYSTEM    = UTC
MEAN_ELEMENT_THEORY = SGP/SGP4

EPOCH          = 2026-03-17T20:00:01.999008
MEAN_MOTION    = 15.56884686
ECCENTRICITY   = .000169
INCLINATION    = 43.0001
RA_OF_ASC_NODE = 200.4931
ARG_OF_PERICENTER = 275.7258
MEAN_ANOMALY   = 77.8249

EPHEMERIS_TYPE = 0
CLASSIFICATION_TYPE = U
NORAD_CAT_ID   = 67912
ELEMENT_SET_NO = 999
REV_AT_EPOCH   = 495
BSTAR          = -.28408E-1
MEAN_MOTION_DOT = -.1857587E-1
MEAN_MOTION_DDOT = 0

CCSDS_OMM_VERS = 2.0
CREATION_DATE  = 
ORIGINATOR     = 

OBJECT_NAME    = STARLINK-36690
OBJECT_ID      = 2026-036K
CENTER_NAME    = EARTH
REF_FRAME      = TEME
TIME_SYSTEM    = UTC
MEAN_ELEMENT_THEORY = SGP/SGP4

EPOCH          = 2026-03-17T20:00:01.999008
MEAN_MOTION    = 15.56918285
ECCENTRICITY   = .0001677
INCLINATION    = 43.0003
RA_OF_ASC_NODE = 200.4805
ARG_OF_PERICENTER = 277.5367
MEAN_ANOMALY   = 81.1793

EPHEMERIS_TYPE = 0
CLASSIFICATION_TYPE = U
NORAD_CAT_ID   = 67913
ELEMENT_SET_NO = 999
REV_AT_EPOCH   = 495
BSTAR          = -.2815E-1
MEAN_MOTION_DOT = -.1844685E-1
MEAN_MOTION_DDOT = 0

CCSDS_OMM_VERS = 2.0
CREATION_DATE  = 
ORIGINATOR     = 

OBJECT_NAME    = STARLINK-36724
OBJECT_ID      = 2026-036L
CENTER_NAME    = EARTH
REF_FRAME      = TEME
TIME_SYSTEM    = UTC
MEAN_ELEMENT_THEORY = SGP/SGP4

EPOCH          = 2026-03-17T20:00:01.999008
MEAN_MOTION    = 15.57310397
ECCENTRICITY   = .000174
INCLINATION    = 43.0006
RA_OF_ASC_NODE = 200.4380
ARG_OF_PERICENTER = 285.1538
MEAN_ANOMALY   = 90.3523

EPHEMERIS_TYPE = 0
CLASSIFICATION_TYPE = U
NORAD_CAT_ID   = 67914
ELEMENT_SET_NO = 999
REV_AT_EPOCH   = 495
BSTAR          = -.27954E-1
MEAN_MOTION_DOT = -.1857572E-1
MEAN_MOTION_DDOT = 0

CCSDS_OMM_VERS = 2.0
CREATION_DATE  = 
ORIGINATOR     = 

OBJECT_NAME    = STARLINK-36723
OBJECT_ID      = 2026-036M
CENTER_NAME    = EARTH
REF_FRAME      = TEME
TIME_SYSTEM    = UTC
MEAN_ELEMENT_THEORY = SGP/SGP4

EPOCH          = 2026-03-17T20:00:01.999008
MEAN_MOTION    = 15.58652946
ECCENTRICITY   = .0001796
INCLINATION    = 42.9996
RA_OF_ASC_NODE = 200.3803
ARG_OF_PERICENTER = 286.6450
MEAN_ANOMALY   = 112.4017

EPHEMERIS_TYPE = 0
CLASSIFICATION_TYPE = U
NORAD_CAT_ID   = 67915
ELEMENT_SET_NO = 999
REV_AT_EPOCH   = 495
BSTAR          = -.26526E-1
MEAN_MOTION_DOT = -.1855451E-1
MEAN_MOTION_DDOT = 0

CCSDS_OMM_VERS = 2.0
CREATION_DATE  = 
ORIGINATOR     = 

OBJECT_NAME    = STARLINK-36721
OBJECT_ID      = 2026-036N
CENTER_NAME    = EARTH
REF_FRAME      = TEME
TIME_SYSTEM    = UTC
MEAN_ELEMENT_THEORY = SGP/SGP4

EPOCH          = 2026-03-17T20:00:01.999008
MEAN_MOTION    = 15.58683859
ECCENTRICITY   = .0001766
INCLINATION    = 42.9999
RA_OF_ASC_NODE = 200.3570
ARG_OF_PERICENTER = 286.1421
MEAN_ANOMALY   = 122.1638

EPHEMERIS_TYPE = 0
CLASSIFICATION_TYPE = U
NORAD_CAT_ID   = 67916
ELEMENT_SET_NO = 999
REV_AT_EPOCH   = 495
BSTAR          = -.2638E-1
MEAN_MOTION_DOT = -.1848351E-1
MEAN_MOTION_DDOT = 0

CCSDS_OMM_VERS = 2.0
CREATION_DATE  = 
ORIGINATOR     = 

OBJECT_NAME    = STARLINK-36722
OBJECT_ID      = 2026-036P
CENTER_NAME    = EARTH
REF_FRAME      = TEME
TIME_SYSTEM    = UTC
MEAN_ELEMENT_THEORY = SGP/SGP4

EPOCH          = 2026-03-17T20:00:01.999008
MEAN_MOTION    = 15.61812910
ECCENTRICITY   = .0001687
INCLINATION    = 43.0001
RA_OF_ASC_NODE = 200.2007
ARG_OF_PERICENTER = 289.5064
MEAN_ANOMALY   = 181.6026

EPHEMERIS_TYPE = 0
CLASSIFICATION_TYPE = U
NORAD_CAT_ID   = 67917
ELEMENT_SET_NO = 999
REV_AT_EPOCH   = 495
BSTAR          = -.23412E-1
MEAN_MOTION_DOT = -.1851508E-1
MEAN_MOTION_DDOT = 0

CCSDS_OMM_VERS = 2.0
CREATION_DATE  = 
ORIGINATOR     = 

OBJECT_NAME    = STARLINK-36341
OBJECT_ID      = 2026-036Q
CENTER_NAME    = EARTH
REF_FRAME      = TEME
TIME_SYSTEM    = UTC
MEAN_ELEMENT_THEORY = SGP/SGP4

EPOCH          = 2026-03-17T20:00:01.999008
MEAN_MOTION    = 15.50514365
ECCENTRICITY   = .0001667
INCLINATION    = 43.0004
RA_OF_ASC_NODE = 201.2227
ARG_OF_PERICENTER = 287.4377
MEAN_ANOMALY   = 129.9095

EPHEMERIS_TYPE = 0
CLASSIFICATION_TYPE = U
NORAD_CAT_ID   = 67918
ELEMENT_SET_NO = 999
REV_AT_EPOCH   = 495
BSTAR          = .16784E-2
MEAN_MOTION_DOT = .99152E-3
MEAN_MOTION_DDOT = 0

CCSDS_OMM_VERS = 2.0
CREATION_DATE  = 
ORIGINATOR     = 

OBJECT_NAME    = STARLINK-36663
OBJECT_ID      = 2026-036R
CENTER_NAME    = EARTH
REF_FRAME      = TEME
TIME_SYSTEM    = UTC
MEAN_ELEMENT_THEORY = SGP/SGP4

EPOCH          = 2026-03-17T20:00:01.999008
MEAN_MOTION    = 15.58971294
ECCENTRICITY   = .0001789
INCLINATION    = 43.0002
RA_OF_ASC_NODE = 200.3212
ARG_OF_PERICENTER = 288.9149
MEAN_ANOMALY   = 133.6394

EPHEMERIS_TYPE = 0
CLASSIFICATION_TYPE = U
NORAD_CAT_ID   = 67919
ELEMENT_SET_NO = 999
REV_AT_EPOCH   = 495
BSTAR          = -.261E-1
MEAN_MOTION_DOT = -.1848905E-1
MEAN_MOTION_DDOT = 0

CCSDS_OMM_VERS = 2.0
CREATION_DATE  = 
ORIGINATOR     = 

OBJECT_NAME    = STARLINK-36375
OBJECT_ID      = 2026-036S
CENTER_NAME    = EARTH
REF_FRAME      = TEME
TIME_SYSTEM    = UTC
MEAN_ELEMENT_THEORY = SGP/SGP4

EPOCH          = 2026-03-17T20:00:01.999008
MEAN_MOTION    = 15.53047229
ECCENTRICITY   = .0001373
INCLINATION    = 43.0007
RA_OF_ASC_NODE = 200.6230
ARG_OF_PERICENTER = 273.4957
MEAN_ANOMALY   = 27.0079

EPHEMERIS_TYPE = 0
CLASSIFICATION_TYPE = U
NORAD_CAT_ID   = 67920
ELEMENT_SET_NO = 999
REV_AT_EPOCH   = 495
BSTAR          = -.27867E-1
MEAN_MOTION_DOT = -.1607412E-1
MEAN_MOTION_DDOT = 0

CCSDS_OMM_VERS = 2.0
CREATION_DATE  = 
ORIGINATOR     = 

OBJECT_NAME    = STARLINK-36405
OBJECT_ID      = 2026-036T
CENTER_NAME    = EARTH
REF_FRAME      = TEME
TIME_SYSTEM    = UTC
MEAN_ELEMENT_THEORY = SGP/SGP4

EPOCH          = 2026-03-17T20:00:01.999008
MEAN_MOTION    = 15.50518886
ECCENTRICITY   = .0002098
INCLINATION    = 43.0004
RA_OF_ASC_NODE = 201.1873
ARG_OF_PERICENTER = 268.4919
MEAN_ANOMALY   = 163.0937

EPHEMERIS_TYPE = 0
CLASSIFICATION_TYPE = U
NORAD_CAT_ID   = 67921
ELEMENT_SET_NO = 999
REV_AT_EPOCH   = 495
BSTAR          = .16595E-2
MEAN_MOTION_DOT = .98032E-3
MEAN_MOTION_DDOT = 0

CCSDS_OMM_VERS = 2.0
CREATION_DATE  = 
ORIGINATOR     = 

OBJECT_NAME    = STARLINK-36383
OBJECT_ID      = 2026-036U
CENTER_NAME    = EARTH
REF_FRAME      = TEME
TIME_SYSTEM    = UTC
MEAN_ELEMENT_THEORY = SGP/SGP4

EPOCH          = 2026-03-17T18:42:21.859488
MEAN_MOTION    = 15.82083730
ECCENTRICITY   = .000138
INCLINATION    = 42.9979
RA_OF_ASC_NODE = 200.0361
ARG_OF_PERICENTER = 238.0369
MEAN_ANOMALY   = 122.0368

EPHEMERIS_TYPE = 0
CLASSIFICATION_TYPE = U
NORAD_CAT_ID   = 67922
ELEMENT_SET_NO = 999
REV_AT_EPOCH   = 495
BSTAR          = .12288E-2
MEAN_MOTION_DOT = .267203E-2
MEAN_MOTION_DDOT = 0

CCSDS_OMM_VERS = 2.0
CREATION_DATE  = 
ORIGINATOR     = 

OBJECT_NAME    = STARLINK-36406
OBJECT_ID      = 2026-036V
CENTER_NAME    = EARTH
REF_FRAME      = TEME
TIME_SYSTEM    = UTC
MEAN_ELEMENT_THEORY = SGP/SGP4

EPOCH          = 2026-03-17T20:00:01.999008
MEAN_MOTION    = 15.50522987
ECCENTRICITY   = .0002005
INCLINATION    = 43.0003
RA_OF_ASC_NODE = 201.4645
ARG_OF_PERICENTER = 281.2236
MEAN_ANOMALY   = 38.1961

EPHEMERIS_TYPE = 0
CLASSIFICATION_TYPE = U
NORAD_CAT_ID   = 67923
ELEMENT_SET_NO = 999
REV_AT_EPOCH   = 495
BSTAR          = .20782E-2
MEAN_MOTION_DOT = .123272E-2
MEAN_MOTION_DDOT = 0

CCSDS_OMM_VERS = 2.0
CREATION_DATE  = 
ORIGINATOR     = 

OBJECT_NAME    = STARLINK-36714
OBJECT_ID      = 2026-036W
CENTER_NAME    = EARTH
REF_FRAME      = TEME
TIME_SYSTEM    = UTC
MEAN_ELEMENT_THEORY = SGP/SGP4

EPOCH          = 2026-03-17T20:00:01.999008
MEAN_MOTION    = 15.53734844
ECCENTRICITY   = .0001885
INCLINATION    = 43.0005
RA_OF_ASC_NODE = 200.5422
ARG_OF_PERICENTER = 274.4638
MEAN_ANOMALY   = 57.9525

EPHEMERIS_TYPE = 0
CLASSIFICATION_TYPE = U
NORAD_CAT_ID   = 67924
ELEMENT_SET_NO = 999
REV_AT_EPOCH   = 495
BSTAR          = -.31221E-1
MEAN_MOTION_DOT = -.1820188E-1
MEAN_MOTION_DDOT = 0

CCSDS_OMM_VERS = 2.0
CREATION_DATE  = 
ORIGINATOR     = 

OBJECT_NAME    = STARLINK-36726
OBJECT_ID      = 2026-036X
CENTER_NAME    = EARTH
REF_FRAME      = TEME
TIME_SYSTEM    = UTC
MEAN_ELEMENT_THEORY = SGP/SGP4

EPOCH          = 2026-03-17T20:00:01.999008
MEAN_MOTION    = 15.50515570
ECCENTRICITY   = .0001653
INCLINATION    = 43.0005
RA_OF_ASC_NODE = 201.1594
ARG_OF_PERICENTER = 283.3520
MEAN_ANOMALY   = 159.0626

EPHEMERIS_TYPE = 0
CLASSIFICATION_TYPE = U
NORAD_CAT_ID   = 67925
ELEMENT_SET_NO = 999
REV_AT_EPOCH   = 495
BSTAR          = .1688E-2
MEAN_MOTION_DOT = .99733E-3
MEAN_MOTION_DDOT = 0

